CCSDS_OMM_VERS = 2.0
CREATION_DATE  = 
ORIGINATOR     = 

OBJECT_NAME    = CZ-2C R/B
OBJECT_ID      = 2022-132E
CENTER_NAME    = EARTH
REF_FRAME      = TEME
TIME_SYSTEM    = UTC
MEAN_ELEMENT_THEORY = SGP/SGP4

EPOCH          = 2026-02-20T23:04:11.733888
MEAN_MOTION    = 15.60296757
ECCENTRICITY   = .0020122
INCLINATION    = 97.2963
RA_OF_ASC_NODE = 54.7917
ARG_OF_PERICENTER = 145.5640
MEAN_ANOMALY   = 214.6926

EPHEMERIS_TYPE = 0
CLASSIFICATION_TYPE = U
NORAD_CAT_ID   = 54039
ELEMENT_SET_NO = 999
REV_AT_EPOCH   = 18776
BSTAR          = .44436E-3
MEAN_MOTION_DOT = .36644E-3
MEAN_MOTION_DDOT = 0

CCSDS_OMM_VERS = 2.0
CREATION_DATE  = 
ORIGINATOR     = 

OBJECT_NAME    = GSLV R/B
OBJECT_ID      = 2022-138AN
CENTER_NAME    = EARTH
REF_FRAME      = TEME
TIME_SYSTEM    = UTC
MEAN_ELEMENT_THEORY = SGP/SGP4

EPOCH          = 2026-02-20T19:19:58.535904
MEAN_MOTION    = 14.96637332
ECCENTRICITY   = .0020543
INCLINATION    = 87.3881
RA_OF_ASC_NODE = 172.0117
ARG_OF_PERICENTER = 207.4603
MEAN_ANOMALY   = 152.5545

EPHEMERIS_TYPE = 0
CLASSIFICATION_TYPE = U
NORAD_CAT_ID   = 54149
ELEMENT_SET_NO = 999
REV_AT_EPOCH   = 18140
BSTAR          = .3155E-3
MEAN_MOTION_DOT = .3638E-4
MEAN_MOTION_DDOT = 0

CCSDS_OMM_VERS = 2.0
CREATION_DATE  = 
ORIGINATOR     = 

OBJECT_NAME    = XRISM
OBJECT_ID      = 2023-137A
CENTER_NAME    = EARTH
REF_FRAME      = TEME
TIME_SYSTEM    = UTC
MEAN_ELEMENT_THEORY = SGP/SGP4

EPOCH          = 2026-02-21T03:07:18.896448
MEAN_MOTION    = 15.11278718
ECCENTRICITY   = .0008313
INCLINATION    = 31.0033
RA_OF_ASC_NODE = 30.7498
ARG_OF_PERICENTER = 234.1185
MEAN_ANOMALY   = 125.8682

EPHEMERIS_TYPE = 0
CLASSIFICATION_TYPE = U
NORAD_CAT_ID   = 57800
ELEMENT_SET_NO = 999
REV_AT_EPOCH   = 13528
BSTAR          = .29985E-3
MEAN_MOTION_DOT = .5272E-4
MEAN_MOTION_DDOT = 0

CCSDS_OMM_VERS = 2.0
CREATION_DATE  = 
ORIGINATOR     = 

OBJECT_NAME    = ACS3
OBJECT_ID      = 2024-077B
CENTER_NAME    = EARTH
REF_FRAME      = TEME
TIME_SYSTEM    = UTC
MEAN_ELEMENT_THEORY = SGP/SGP4

EPOCH          = 2026-02-20T20:38:35.957760
MEAN_MOTION    = 13.88853427
ECCENTRICITY   = .004931
INCLINATION    = 97.2164
RA_OF_ASC_NODE = 356.7569
ARG_OF_PERICENTER = 125.2712
MEAN_ANOMALY   = 235.3079

EPHEMERIS_TYPE = 0
CLASSIFICATION_TYPE = U
NORAD_CAT_ID   = 59588
ELEMENT_SET_NO = 999
REV_AT_EPOCH   = 9186
BSTAR          = .15585E-1
MEAN_MOTION_DOT = .19033E-3
MEAN_MOTION_DDOT = 0

CCSDS_OMM_VERS = 2.0
CREATION_DATE  = 
ORIGINATOR     = 

OBJECT_NAME    = SZ-21 MODULE
OBJECT_ID      = 2025-246C
CENTER_NAME    = EARTH
REF_FRAME      = TEME
TIME_SYSTEM    = UTC
MEAN_ELEMENT_THEORY = SGP/SGP4

EPOCH          = 2026-02-20T01:07:01.388640
MEAN_MOTION    = 15.67142085
ECCENTRICITY   = .00017542
INCLINATION    = 41.4757
RA_OF_ASC_NODE = 311.8512
ARG_OF_PERICENTER = 295.1642
MEAN_ANOMALY   = 64.9017

EPHEMERIS_TYPE = 0
CLASSIFICATION_TYPE = U
NORAD_CAT_ID   = 66515
ELEMENT_SET_NO = 999
REV_AT_EPOCH   = 1530
BSTAR          = .28694459E-3
MEAN_MOTION_DOT = .31392E-3
MEAN_MOTION_DDOT = 0

